STARLINK-33709          
1 63419U 25065W   25359.84933402  .00024745  00000+0  90569-3 0  9991
2 63419  43.0089 164.3385 0003193 291.3325  68.7186 15.27578552 41547
STARLINK-33698          
1 63420U 25065X   25359.80566593  .00039145  00000+0  14248-2 0  9991
2 63420  42.9985 163.9787 0001298 287.2494  72.8215 15.27573683 41547
STARLINK-33606          
1 63421U 25065Y   25359.49671671  .00012318  00000+0  45632-3 0  9996
2 63421  42.9982 165.9708 0001343 274.5873  85.4826 15.27586682 41496
STARLINK-33686          
1 63422U 25065Z   25359.83393058  .00023646  00000+0  86569-3 0  9995
2 63422  42.9994 164.2036 0001523 281.0342  79.0338 15.27592886 41546
STARLINK-33675          
1 63423U 25065AA  25359.80181730  .00020766  00000+0  76153-3 0  9993
2 63423  42.9993 163.9578 0001657 275.6155  84.4508 15.27601607 41543
STARLINK-33655          
1 63424U 25065AB  25359.53013080  .00034988  00000+0  12744-2 0  9992
2 63424  43.0019 166.2189 0001373 261.9172  98.1524 15.27594385 41499
STARLINK-33608          
1 63425U 25065AC  25358.85055881  .00024842  00000+0  90864-3 0  9990
2 63425  42.9997 169.7109 0001922 268.2290  91.8341 15.27599973 41398
STARLINK-33615          
1 63426U 25065AD  25359.85321116  .00021693  00000+0  79516-3 0  9991
2 63426  43.0028 164.3525 0001046 277.7444  82.3289 15.27594472 41544
STARLINK-33682          
1 63433U 25069A   25359.61981199  .00032757  00000+0  11129-2 0  9998
2 63433  53.1601 126.5751 0001252  81.9750 278.1392 15.30208897 42061
STARLINK-33710          
1 63434U 25069B   25359.63669693  .00029492  00000+0  10034-2 0  9999
2 63434  53.1576 126.6811 0001232  69.0335 291.0798 15.30216863 42061
STARLINK-33733          
1 63435U 25069C   25359.63351949  .00019637  00000+0  67346-3 0  9991
2 63435  53.1590 126.6597 0001293  84.9874 275.1274 15.30195766 42060
STARLINK-33638          
1 63436U 25069D   25359.63034480  .00029617  00000+0  10066-2 0  9995
2 63436  53.1603 126.6373 0001245 106.9724 253.1414 15.30248936 42064
STARLINK-33726          
1 63437U 25069E   25359.55977269  .00010183  00000+0  35555-3 0  9997
2 63437  53.1592 126.9112 0001194  46.0690 314.0409 15.30193032 42006
STARLINK-33681          
1 63438U 25069F   25359.68301498  .00018781  00000+0  64441-3 0  9995
2 63438  53.1605 126.2581 0001516  75.1802 284.9367 15.30210900 42070
STARLINK-33730          
1 63439U 25069G   25359.78726169  .00022061  00000+0  75451-3 0  9992
2 63439  53.1562 125.4835 0001124  79.7142 280.3985 15.30210657 42095
STARLINK-33743          
1 63440U 25069H   25359.56188248  .00038862  00000+0  13166-2 0  9990
2 63440  53.1597 126.9202 0001039 108.2969 251.8145 15.30219693 41942
