[{"OBJECT_NAME":"STARLINK-33709","OBJECT_ID":"2025-065W","EPOCH":"2025-12-25T20:23:02.459328","MEAN_MOTION":15.27578552,"ECCENTRICITY":0.0003193,"INCLINATION":43.0089,"RA_OF_ASC_NODE":164.3385,"ARG_OF_PERICENTER":291.3325,"MEAN_ANOMALY":68.7186,"EPHEMERIS_TYPE":0,"CLASSIFICATION_TYPE":"U","NORAD_CAT_ID":63419,"ELEMENT_SET_NO":999,"REV_AT_EPOCH":4154,"BSTAR":0.00090569,"MEAN_MOTION_DOT":0.00024745,"MEAN_MOTION_DDOT":0},{"OBJECT_NAME":"STARLINK-33698","OBJECT_ID":"2025-065X","EPOCH":"2025-12-25T19:20:09.536352","MEAN_MOTION":15.27573683,"ECCENTRICITY":0.0001298,"INCLINATION":42.9985,"RA_OF_ASC_NODE":163.9787,"ARG_OF_PERICENTER":287.2494,"MEAN_ANOMALY":72.8215,"EPHEMERIS_TYPE":0,"CLASSIFICATION_TYPE":"U","NORAD_CAT_ID":63420,"ELEMENT_SET_NO":999,"REV_AT_EPOCH":4154,"BSTAR":0.0014248,"MEAN_MOTION_DOT":0.00039145,"MEAN_MOTION_DDOT":0},{"OBJECT_NAME":"STARLINK-33606","OBJECT_ID":"2025-065Y","EPOCH":"2025-12-25T11:55:16.323744","MEAN_MOTION":15.27586682,"ECCENTRICITY":0.0001343,"INCLINATION":42.9982,"RA_OF_ASC_NODE":165.9708,"ARG_OF_PERICENTER":274.5873,"MEAN_ANOMALY":85.4826,"EPHEMERIS_TYPE":0,"CLASSIFICATION_TYPE":"U","NORAD_CAT_ID":63421,"ELEMENT_SET_NO":999,"REV_AT_EPOCH":4149,"BSTAR":0.00045632,"MEAN_MOTION_DOT":0.00012318,"MEAN_MOTION_DDOT":0},{"OBJECT_NAME":"STARLINK-33686","OBJECT_ID":"2025-065Z","EPOCH":"2025-12-25T20:00:51.602112","MEAN_MOTION":15.27592886,"ECCENTRICITY":0.0001523,"INCLINATION":42.9994,"RA_OF_ASC_NODE":164.2036,"ARG_OF_PERICENTER":281.0342,"MEAN_ANOMALY":79.0338,"EPHEMERIS_TYPE":0,"CLASSIFICATION_TYPE":"U","NORAD_CAT_ID":63422,"ELEMENT_SET_NO":999,"REV_AT_EPOCH":4154,"BSTAR":0.00086569,"MEAN_MOTION_DOT":0.00023646,"MEAN_MOTION_DDOT":0},{"OBJECT_NAME":"STARLINK-33675","OBJECT_ID":"2025-065AA","EPOCH":"2025-12-25T19:14:37.014720","MEAN_MOTION":15.27601607,"ECCENTRICITY":0.0001657,"INCLINATION":42.9993,"RA_OF_ASC_NODE":163.9578,"ARG_OF_PERICENTER":275.6155,"MEAN_ANOMALY":84.4508,"EPHEMERIS_TYPE":0,"CLASSIFICATION_TYPE":"U","NORAD_CAT_ID":63423,"ELEMENT_SET_NO":999,"REV_AT_EPOCH":4154,"BSTAR":0.00076153,"MEAN_MOTION_DOT":0.00020766,"MEAN_MOTION_DDOT":0},{"OBJECT_NAME":"STARLINK-33655","OBJECT_ID":"2025-065AB","EPOCH":"2025-12-25T12:43:23.301120","MEAN_MOTION":15.27594385,"ECCENTRICITY":0.0001373,"INCLINATION":43.0019,"RA_OF_ASC_NODE":166.2189,"ARG_OF_PERICENTER":261.9172,"MEAN_ANOMALY":98.1524,"EPHEMERIS_TYPE":0,"CLASSIFICATION_TYPE":"U","NORAD_CAT_ID":63424,"ELEMENT_SET_NO":999,"REV_AT_EPOCH":4149,"BSTAR":0.0012744,"MEAN_MOTION_DOT":0.00034988,"MEAN_MOTION_DDOT":0},{"OBJECT_NAME":"STARLINK-33608","OBJECT_ID":"2025-065AC","EPOCH":"2025-12-24T20:24:48.281184","MEAN_MOTION":15.27599973,"ECCENTRICITY":0.0001922,"INCLINATION":42.9997,"RA_OF_ASC_NODE":169.7109,"ARG_OF_PERICENTER":268.229,"MEAN_ANOMALY":91.8341,"EPHEMERIS_TYPE":0,"CLASSIFICATION_TYPE":"U","NORAD_CAT_ID":63425,"ELEMENT_SET_NO":999,"REV_AT_EPOCH":4139,"BSTAR":0.00090864,"MEAN_MOTION_DOT":0.00024842,"MEAN_MOTION_DDOT":0},{"OBJECT_NAME":"STARLINK-33615","OBJECT_ID":"2025-065AD","EPOCH":"2025-12-25T20:28:37.444224","MEAN_MOTION":15.27594472,"ECCENTRICITY":0.0001046,"INCLINATION":43.0028,"RA_OF_ASC_NODE":164.3525,"ARG_OF_PERICENTER":277.7444,"MEAN_ANOMALY":82.3289,"EPHEMERIS_TYPE":0,"CLASSIFICATION_TYPE":"U","NORAD_CAT_ID":63426,"ELEMENT_SET_NO":999,"REV_AT_EPOCH":4154,"BSTAR":0.00079516,"MEAN_MOTION_DOT":0.00021693,"MEAN_MOTION_DDOT":0},{"OBJECT_NAME":"STARLINK-33682","OBJECT_ID":"2025-069A","EPOCH":"2025-12-25T14:52:31.755936","MEAN_MOTION":15.30208897,"ECCENTRICITY":0.0001252,"INCLINATION":53.1601,"RA_OF_ASC_NODE":126.5751,"ARG_OF_PERICENTER":81.975,"MEAN_ANOMALY":278.1392,"EPHEMERIS_TYPE":0,"CLASSIFICATION_TYPE":"U","NORAD_CAT_ID":63433,"ELEMENT_SET_NO":999,"REV_AT_EPOCH":4206,"BSTAR":0.0011129,"MEAN_MOTION_DOT":0.00032757,"MEAN_MOTION_DDOT":0},{"OBJECT_NAME":"STARLINK-33710","OBJECT_ID":"2025-069B","EPOCH":"2025-12-25T15:16:50.614752","MEAN_MOTION":15.30216863,"ECCENTRICITY":0.0001232,"INCLINATION":53.1576,"RA_OF_ASC_NODE":126.6811,"ARG_OF_PERICENTER":69.0335,"MEAN_ANOMALY":291.0798,"EPHEMERIS_TYPE":0,"CLASSIFICATION_TYPE":"U","NORAD_CAT_ID":63434,"ELEMENT_SET_NO":999,"REV_AT_EPOCH":4206,"BSTAR":0.0010034,"MEAN_MOTION_DOT":0.00029492,"MEAN_MOTION_DDOT":0},{"OBJECT_NAME":"STARLINK-33733","OBJECT_ID":"2025-069C","EPOCH":"2025-12-25T15:12:16.083936","MEAN_MOTION":15.30195766,"ECCENTRICITY":0.0001293,"INCLINATION":53.159,"RA_OF_ASC_NODE":126.6597,"ARG_OF_PERICENTER":84.9874,"MEAN_ANOMALY":275.1274,"EPHEMERIS_TYPE":0,"CLASSIFICATION_TYPE":"U","NORAD_CAT_ID":63435,"ELEMENT_SET_NO":999,"REV_AT_EPOCH":4206,"BSTAR":0.00067346,"MEAN_MOTION_DOT":0.00019637,"MEAN_MOTION_DDOT":0},{"OBJECT_NAME":"STARLINK-33638","OBJECT_ID":"2025-069D","EPOCH":"2025-12-25T15:07:41.790720","MEAN_MOTION":15.30248936,"ECCENTRICITY":0.0001245,"INCLINATION":53.1603,"RA_OF_ASC_NODE":126.6373,"ARG_OF_PERICENTER":106.9724,"MEAN_ANOMALY":253.1414,"EPHEMERIS_TYPE":0,"CLASSIFICATION_TYPE":"U","NORAD_CAT_ID":63436,"ELEMENT_SET_NO":999,"REV_AT_EPOCH":4206,"BSTAR":0.0010066,"MEAN_MOTION_DOT":0.00029617,"MEAN_MOTION_DDOT":0},{"OBJECT_NAME":"STARLINK-33726","OBJECT_ID":"2025-069E","EPOCH":"2025-12-25T13:26:04.360416","MEAN_MOTION":15.30193032,"ECCENTRICITY":0.0001194,"INCLINATION":53.1592,"RA_OF_ASC_NODE":126.9112,"ARG_OF_PERICENTER":46.069,"MEAN_ANOMALY":314.0409,"EPHEMERIS_TYPE":0,"CLASSIFICATION_TYPE":"U","NORAD_CAT_ID":63437,"ELEMENT_SET_NO":999,"REV_AT_EPOCH":4200,"BSTAR":0.00035555,"MEAN_MOTION_DOT":0.00010183,"MEAN_MOTION_DDOT":0},{"OBJECT_NAME":"STARLINK-33681","OBJECT_ID":"2025-069F","EPOCH":"2025-12-25T16:23:32.494272","MEAN_MOTION":15.302109,"ECCENTRICITY":0.0001516,"INCLINATION":53.1605,"RA_OF_ASC_NODE":126.2581,"ARG_OF_PERICENTER":75.1802,"MEAN_ANOMALY":284.9367,"EPHEMERIS_TYPE":0,"CLASSIFICATION_TYPE":"U","NORAD_CAT_ID":63438,"ELEMENT_SET_NO":999,"REV_AT_EPOCH":4207,"BSTAR":0.00064441,"MEAN_MOTION_DOT":0.00018781,"MEAN_MOTION_DDOT":0},{"OBJECT_NAME":"STARLINK-33730","OBJECT_ID":"2025-069G","EPOCH":"2025-12-25T18:53:39.410016","MEAN_MOTION":15.30210657,"ECCENTRICITY":0.0001124,"INCLINATION":53.1562,"RA_OF_ASC_NODE":125.4835,"ARG_OF_PERICENTER":79.7142,"MEAN_ANOMALY":280.3985,"EPHEMERIS_TYPE":0,"CLASSIFICATION_TYPE":"U","NORAD_CAT_ID":63439,"ELEMENT_SET_NO":999,"REV_AT_EPOCH":4209,"BSTAR":0.00075451,"MEAN_MOTION_DOT":0.00022061,"MEAN_MOTION_DDOT":0},{"OBJECT_NAME":"STARLINK-33743","OBJECT_ID":"2025-069H","EPOCH":"2025-12-25T13:29:06.646272","MEAN_MOTION":15.30219693,"ECCENTRICITY":0.0001039,"INCLINATION":53.1597,"RA_OF_ASC_NODE":126.9202,"ARG_OF_PERICENTER":108.2969,"MEAN_ANOMALY":251.8145,"EPHEMERIS_TYPE":0,"CLASSIFICATION_TYPE":"U","NORAD_CAT_ID":63440,"ELEMENT_SET_NO":999,"REV_AT_EPOCH":4194,"BSTAR":0.0013166,"MEAN_MOTION_DOT":0.00038862,"MEAN_MOTION_DDOT":0}]
